[{"OBJECT_NAME":"STARLINK-6075","OBJECT_ID":"2023-046K","EPOCH":"2026-03-09T23:11:06.102240","MEAN_MOTION":15.02530441,"ECCENTRICITY":0.00013026,"INCLINATION":43.0018,"RA_OF_ASC_NODE":157.4403,"ARG_OF_PERICENTER":269.7167,"MEAN_ANOMALY":90.3526,"EPHEMERIS_TYPE":0,"CLASSIFICATION_TYPE":"U","NORAD_CAT_ID":56102,"ELEMENT_SET_NO":999,"REV_AT_EPOCH":16210,"BSTAR":-1.9428073e-5,"MEAN_MOTION_DOT":-4.66e-6,"MEAN_MOTION_DDOT":0},{"OBJECT_NAME":"ROBUSTA-3A (MEDITERRANEE)","OBJECT_ID":"2024-128J","EPOCH":"2026-03-09T17:32:19.735008","MEAN_MOTION":15.10076246,"ECCENTRICITY":0.0051919,"INCLINATION":61.9866,"RA_OF_ASC_NODE":199.5396,"ARG_OF_PERICENTER":108.1058,"MEAN_ANOMALY":252.5701,"EPHEMERIS_TYPE":0,"CLASSIFICATION_TYPE":"U","NORAD_CAT_ID":60243,"ELEMENT_SET_NO":999,"REV_AT_EPOCH":9139,"BSTAR":0.00068950735,"MEAN_MOTION_DOT":0.00011442,"MEAN_MOTION_DDOT":0}]
